{
  "norad_id": 56122,
  "name": "STARLINK-6094",
  "history": [
    {
      "epoch": "2026-03-28T14:52:46.772256Z",
      "apogee_km": 483.92087704166715,
      "perigee_km": 482.19048424760877,
      "latitude_deg": -7.041522858030231e-06,
      "longitude_deg": 2.250486395700798,
      "height_km": 482.9720526756516,
      "semi_major_axis_km": 6861.192680644638,
      "eccentricity": 0.0001261,
      "inclination_deg": 43.0063,
      "raan_deg": 51.4832,
      "arg_perigee_deg": 260.7471,
      "mean_anomaly_deg": 99.3238,
      "mean_motion_rev_day": 15.27577801
    },
    {
      "epoch": "2026-03-29T05:00:11.290464Z",
      "apogee_km": 484.0826391623186,
      "perigee_km": 482.0297701554846,
      "latitude_deg": -6.980046440647293e-06,
      "longitude_deg": 146.49379661789266,
      "height_km": 483.11922138272183,
      "semi_major_axis_km": 6861.193204658901,
      "eccentricity": 0.0001496,
      "inclination_deg": 43.0072,
      "raan_deg": 48.1587,
      "arg_perigee_deg": 253.8491,
      "mean_anomaly_deg": 106.2196,
      "mean_motion_rev_day": 15.27577626
    },
    {
      "epoch": "2026-03-30T04:32:32.157312Z",
      "apogee_km": 484.0494777275253,
      "perigee_km": 482.0761966543487,
      "latitude_deg": 1.1254127338640101e-05,
      "longitude_deg": 146.9018537745311,
      "height_km": 483.07827537761136,
      "semi_major_axis_km": 6861.199837190937,
      "eccentricity": 0.0001438,
      "inclination_deg": 43.0071,
      "raan_deg": 42.6204,
      "arg_perigee_deg": 256.0423,
      "mean_anomaly_deg": 104.0269,
      "mean_motion_rev_day": 15.27575411
    },
    {
      "epoch": "2026-03-30T06:06:41.542272Z",
      "apogee_km": 484.0511856951689,
      "perigee_km": 482.07378800305924,
      "latitude_deg": -2.8435418535891034e-06,
      "longitude_deg": 122.92928704272649,
      "height_km": 483.067208139362,
      "semi_major_axis_km": 6861.199486849114,
      "eccentricity": 0.0001441,
      "inclination_deg": 43.0067,
      "raan_deg": 42.2514,
      "arg_perigee_deg": 256.7088,
      "mean_anomaly_deg": 103.3603,
      "mean_motion_rev_day": 15.27575528
    },
    {
      "epoch": "2026-03-30T06:06:41.543136Z",
      "apogee_km": 484.0509798591838,
      "perigee_km": 482.0739938390434,
      "latitude_deg": -5.138515642017192e-06,
      "longitude_deg": 122.92928098598502,
      "height_km": 483.0671608241011,
      "semi_major_axis_km": 6861.199486849114,
      "eccentricity": 0.00014407,
      "inclination_deg": 43.0067,
      "raan_deg": 42.2514,
      "arg_perigee_deg": 256.7088,
      "mean_anomaly_deg": 103.3603,
      "mean_motion_rev_day": 15.27575528
    },
    {
      "epoch": "2026-03-31T04:04:53.604768Z",
      "apogee_km": 483.99910463968445,
      "perigee_km": 482.16798210107027,
      "latitude_deg": 1.4683047401341964e-05,
      "longitude_deg": 147.30656987721576,
      "height_km": 483.1334928971288,
      "semi_major_axis_km": 6861.2205433703775,
      "eccentricity": 0.00013344,
      "inclination_deg": 43.0075,
      "raan_deg": 37.0812,
      "arg_perigee_deg": 252.6809,
      "mean_anomaly_deg": 107.3897,
      "mean_motion_rev_day": 15.27568496
    },
    {
      "epoch": "2026-04-01T13:02:11.195232Z",
      "apogee_km": 483.9557235850334,
      "perigee_km": 482.17592757207785,
      "latitude_deg": 4.524537094018917e-05,
      "longitude_deg": 3.878101613838769,
      "height_km": 482.9589349526756,
      "semi_major_axis_km": 6861.202825578555,
      "eccentricity": 0.0001297,
      "inclination_deg": 43.0052,
      "raan_deg": 29.3294,
      "arg_perigee_deg": 262.5137,
      "mean_anomaly_deg": 97.5568,
      "mean_motion_rev_day": 15.27574413
    },
    {
      "epoch": "2026-04-02T12:34:31.345824Z",
      "apogee_km": 483.85329619494223,
      "perigee_km": 482.2451713654682,
      "latitude_deg": 2.0811600553110298e-05,
      "longitude_deg": 4.288306156366253,
      "height_km": 482.93738445234453,
      "semi_major_axis_km": 6861.186233780205,
      "eccentricity": 0.00011719,
      "inclination_deg": 43.0051,
      "raan_deg": 23.7903,
      "arg_perigee_deg": 262.0578,
      "mean_anomaly_deg": 98.0141,
      "mean_motion_rev_day": 15.27579954
    },
    {
      "epoch": "2026-04-03T19:57:38.397888Z",
      "apogee_km": 483.56369471696144,
      "perigee_km": 482.4631661879166,
      "latitude_deg": -3.5157038228374087e-06,
      "longitude_deg": -115.16535126441023,
      "height_km": 482.88107613435955,
      "semi_major_axis_km": 6861.150430452439,
      "eccentricity": 8.02e-05,
      "inclination_deg": 43.0044,
      "raan_deg": 16.405,
      "arg_perigee_deg": 260.4813,
      "mean_anomaly_deg": 99.5948,
      "mean_motion_rev_day": 15.27591911
    },
    {
      "epoch": "2026-04-04T19:30:00.170208Z",
      "apogee_km": 484.2743286914729,
      "perigee_km": 481.85918496907016,
      "latitude_deg": -2.378302263937802e-05,
      "longitude_deg": -114.76301969116022,
      "height_km": 482.90938376186375,
      "semi_major_axis_km": 6861.203756830271,
      "eccentricity": 0.000176,
      "inclination_deg": 43.0083,
      "raan_deg": 10.8648,
      "arg_perigee_deg": 266.9278,
      "mean_anomaly_deg": 93.1372,
      "mean_motion_rev_day": 15.27574102
    },
    {
      "epoch": "2026-04-05T11:11:33.642240Z",
      "apogee_km": 484.146087509097,
      "perigee_km": 481.9527034421908,
      "latitude_deg": -4.1367584208874235e-05,
      "longitude_deg": 5.510120287039008,
      "height_km": 482.8513635920722,
      "semi_major_axis_km": 6861.186395475644,
      "eccentricity": 0.00015984,
      "inclination_deg": 43.0076,
      "raan_deg": 7.1719,
      "arg_perigee_deg": 268.7326,
      "mean_anomaly_deg": 91.3342,
      "mean_motion_rev_day": 15.275799
    },
    {
      "epoch": "2026-04-06T02:53:07.421856Z",
      "apogee_km": 484.05596844437605,
      "perigee_km": 482.0770601267868,
      "latitude_deg": -3.108356186699071e-05,
      "longitude_deg": 125.7822046280231,
      "height_km": 482.83988043230994,
      "semi_major_axis_km": 6861.203514285581,
      "eccentricity": 0.00014421,
      "inclination_deg": 43.007,
      "raan_deg": 3.4792,
      "arg_perigee_deg": 270.2406,
      "mean_anomaly_deg": 89.828,
      "mean_motion_rev_day": 15.27574183
    },
    {
      "epoch": "2026-04-07T10:16:15.416544Z",
      "apogee_km": 483.92840321679796,
      "perigee_km": 482.2028107611404,
      "latitude_deg": 2.660947269470892e-05,
      "longitude_deg": 6.325392597076663,
      "height_km": 482.82977206967024,
      "semi_major_axis_km": 6861.202606988969,
      "eccentricity": 0.00012575,
      "inclination_deg": 43.0065,
      "raan_deg": 356.0946,
      "arg_perigee_deg": 270.8727,
      "mean_anomaly_deg": 89.1981,
      "mean_motion_rev_day": 15.27574486
    },
    {
      "epoch": "2026-04-08T09:48:35.970624Z",
      "apogee_km": 483.93509853846535,
      "perigee_km": 482.16751920633305,
      "latitude_deg": -7.4449591479196804e-06,
      "longitude_deg": 6.7350972113929615,
      "height_km": 482.81029678778174,
      "semi_major_axis_km": 6861.188308872399,
      "eccentricity": 0.00012881,
      "inclination_deg": 43.0057,
      "raan_deg": 350.5567,
      "arg_perigee_deg": 271.1838,
      "mean_anomaly_deg": 88.8866,
      "mean_motion_rev_day": 15.27579261
    },
    {
      "epoch": "2026-04-09T09:20:56.800320Z",
      "apogee_km": 483.75586175823446,
      "perigee_km": 482.35672722162144,
      "latitude_deg": -5.948916874645192e-05,
      "longitude_deg": 7.142331077684127,
      "height_km": 482.81478792137176,
      "semi_major_axis_km": 6861.193294489927,
      "eccentricity": 0.00010196,
      "inclination_deg": 43.0046,
      "raan_deg": 345.0175,
      "arg_perigee_deg": 271.5076,
      "mean_anomaly_deg": 88.5658,
      "mean_motion_rev_day": 15.27577596
    },
    {
      "epoch": "2026-04-10T01:02:30.827040Z",
      "apogee_km": 483.7806904544368,
      "perigee_km": 482.3458762511809,
      "latitude_deg": 9.38958191525963e-06,
      "longitude_deg": 127.41364485435034,
      "height_km": 482.8500086865208,
      "semi_major_axis_km": 6861.200283352809,
      "eccentricity": 0.00010456,
      "inclination_deg": 43.0046,
      "raan_deg": 341.325,
      "arg_perigee_deg": 269.2161,
      "mean_anomaly_deg": 90.8571,
      "mean_motion_rev_day": 15.27575262
    },
    {
      "epoch": "2026-04-11T08:25:38.752608Z",
      "apogee_km": 483.84124199759935,
      "perigee_km": 482.2960984806614,
      "latitude_deg": 1.0717617758775069e-05,
      "longitude_deg": 7.95496212493737,
      "height_km": 482.88646691635506,
      "semi_major_axis_km": 6861.20567023913,
      "eccentricity": 0.0001126,
      "inclination_deg": 43.0059,
      "raan_deg": 333.9383,
      "arg_perigee_deg": 266.9819,
      "mean_anomaly_deg": 93.0904,
      "mean_motion_rev_day": 15.27573463
    },
    {
      "epoch": "2026-04-12T22:05:24.020160Z",
      "apogee_km": 483.8240813354396,
      "perigee_km": 482.32010430229366,
      "latitude_deg": 4.567776950167058e-05,
      "longitude_deg": 152.60753615850894,
      "height_km": 482.8976473361987,
      "semi_major_axis_km": 6861.209092818866,
      "eccentricity": 0.0001096,
      "inclination_deg": 43.0038,
      "raan_deg": 325.0762,
      "arg_perigee_deg": 266.2868,
      "mean_anomaly_deg": 93.7859,
      "mean_motion_rev_day": 15.2757232
    },
    {
      "epoch": "2026-04-14T07:02:41.168256Z",
      "apogee_km": 483.8240710080354,
      "perigee_km": 482.3008847239489,
      "latitude_deg": -5.0603739151085854e-05,
      "longitude_deg": 9.177980045225546,
      "height_km": 482.88882318569614,
      "semi_major_axis_km": 6861.199477865992,
      "eccentricity": 0.000111,
      "inclination_deg": 43.0039,
      "raan_deg": 317.3216,
      "arg_perigee_deg": 266.2766,
      "mean_anomaly_deg": 93.7958,
      "mean_motion_rev_day": 15.27575531
    },
    {
      "epoch": "2026-04-15T20:42:26.354592Z",
      "apogee_km": 483.7782913205956,
      "perigee_km": 482.34018458912124,
      "latitude_deg": -8.480852576367136e-06,
      "longitude_deg": 153.830505314194,
      "height_km": 482.9047916727892,
      "semi_major_axis_km": 6861.196237954859,
      "eccentricity": 0.0001048,
      "inclination_deg": 43.0036,
      "raan_deg": 308.4591,
      "arg_perigee_deg": 264.5124,
      "mean_anomaly_deg": 95.5608,
      "mean_motion_rev_day": 15.27576613
    },
    {
      "epoch": "2026-04-16T20:14:47.285376Z",
      "apogee_km": 483.812457878852,
      "perigee_km": 482.3125996618628,
      "latitude_deg": -2.6733202759062845e-05,
      "longitude_deg": 154.2376576858689,
      "height_km": 482.83828161699955,
      "semi_major_axis_km": 6861.199528770357,
      "eccentricity": 0.0001093,
      "inclination_deg": 43.0028,
      "raan_deg": 302.9202,
      "arg_perigee_deg": 270.0767,
      "mean_anomaly_deg": 89.9959,
      "mean_motion_rev_day": 15.27575514
    },
    {
      "epoch": "2026-04-17T19:47:08.086560Z",
      "apogee_km": 483.7982968555616,
      "perigee_km": 482.3267067864117,
      "latitude_deg": -5.587490526601595e-05,
      "longitude_deg": 154.6450393051411,
      "height_km": 482.861557940983,
      "semi_major_axis_km": 6861.199501820986,
      "eccentricity": 0.00010724,
      "inclination_deg": 43.003,
      "raan_deg": 297.381,
      "arg_perigee_deg": 268.2636,
      "mean_anomaly_deg": 91.8092,
      "mean_motion_rev_day": 15.27575523
    }
  ]
}